ACS3                    
1 59588U 24077B   24290.33978259  .00000738  00000+0  85312-3 0  9997
2 59588  97.4532 330.5510 0050931 179.0133 181.1129 13.70874719 23977
